{
  "type": "FeatureCollection",
  "features": [
    {
      "type": "Feature",
      "geometry": {
        "type": "Point",
        "coordinates": [
          31.1698866,
          27.1873861
        ]
      },
      "properties": {}
    },
    {
      "type": "Feature",
      "geometry": {
        "type": "LineString",
        "coordinates": [
          [
            31.1785289,
            27.1878352
          ],
          [
            31.1769413,
            27.188047
          ],
          [
            31.1759774,
            27.1881707
          ],
          [
            31.1746872,
            27.1883494
          ]
        ]
      },
      "properties": {
        "direction": "both"
      }
    },
    {
      "type": "Feature",
      "geometry": {
        "type": "LineString",
        "coordinates": [
          [
            31.1730782,
            27.1915808
          ],
          [
            31.1734006,
            27.190744
          ],
          [
            31.173536,
            27.1903427
          ],
          [
            31.1736896,
            27.1898919
          ],
          [
            31.1737661,
            27.1896689
          ],
          [
            31.1738613,
            27.189453
          ],
          [
            31.1739175,
            27.1892975
          ],
          [
            31.1739789,
            27.1891447
          ],
          [
            31.1747208,
            27.1867088
          ]
        ]
      },
      "properties": {
        "direction": "reverse"
      }
    },
    {
      "type": "Feature",
      "geometry": {
        "type": "LineString",
        "coordinates": [
          [
            31.1737188,
            27.1894641
          ],
          [
            31.1736838,
            27.1895765
          ],
          [
            31.1736869,
            27.1895614
          ],
          [
            31.1737208,
            27.1894603
          ],
          [
            31.1737459,
            27.1894304
          ],
          [
            31.1737889,
            27.1894067
          ],
          [
            31.1738199,
            27.1894045
          ],
          [
            31.173874,
            27.1894218
          ],
          [
            31.1738445,
            27.1894108
          ]
        ]
      },
      "properties": {
        "direction": "forward"
      }
    },
    {
      "type": "Feature",
      "geometry": {
        "type": "LineString",
        "coordinates": [
          [
            31.1730795,
            27.1915835
          ],
          [
            31.1730577,
            27.1916043
          ],
          [
            31.1730166,
            27.1916088
          ],
          [
            31.1729711,
            27.1915905
          ],
          [
            31.1729521,
            27.1915476
          ],
          [
            31.1729762,
            27.1915051
          ],
          [
            31.1729932,
            27.1914599
          ],
          [
            31.1729689,
            27.1915091
          ],
          [
            31.1729535,
            27.1915369
          ],
          [
            31.1729784,
            27.1914908
          ],
          [
            31.1730033,
            27.1914457
          ]
        ]
      },
      "properties": {
        "direction": "reverse"
      }
    },
    {
      "type": "Feature",
      "geometry": {
        "type": "LineString",
        "coordinates": [
          [
            31.1746849,
            27.1883498
          ],
          [
            31.1746246,
            27.1883621
          ],
          [
            31.1745644,
            27.1883674
          ],
          [
            31.1744488,
            27.188381
          ],
          [
            31.1742171,
            27.1883976
          ],
          [
            31.1742083,
            27.1883961
          ],
          [
            31.1742162,
            27.1883989
          ]
        ]
      },
      "properties": {
        "direction": "reverse"
      }
    },
    {
      "type": "Feature",
      "geometry": {
        "type": "LineString",
        "coordinates": [
          [
            31.1742938,
            27.1881419
          ],
          [
            31.1744647,
            27.1882586
          ],
          [
            31.1747048,
            27.1883466
          ]
        ]
      },
      "properties": {
        "direction": "forward"
      }
    },
    {
      "type": "Feature",
      "geometry": {
        "type": "LineString",
        "coordinates": [
          [
            31.1744377,
            27.1883832
          ],
          [
            31.1744641,
            27.18826
          ]
        ]
      },
      "properties": {
        "direction": "both"
      }
    },
    {
      "type": "Feature",
      "geometry": {
        "type": "LineString",
        "coordinates": [
          [
            31.1732438,
            27.1908631
          ],
          [
            31.1734687,
            27.1902465
          ],
          [
            31.1736708,
            27.1896157
          ],
          [
            31.1738916,
            27.1889917
          ],
          [
            31.173952,
            27.1888307
          ],
          [
            31.1739691,
            27.1887871
          ],
          [
            31.1740033,
            27.1886775
          ],
          [
            31.1740503,
            27.1885177
          ],
          [
            31.1740772,
            27.1884353
          ],
          [
            31.1742177,
            27.1880014
          ],
          [
            31.1743512,
            27.1875586
          ],
          [
            31.174491,
            27.1871223
          ],
          [
            31.1745569,
            27.1869006
          ],
          [
            31.1746152,
            27.1866745
          ],
          [
            31.1747208,
            27.1867088
          ],
          [
            31.1746144,
            27.1866747
          ]
        ]
      },
      "properties": {
        "direction": "forward"
      }
    },
    {
      "type": "Feature",
      "geometry": {
        "type": "LineString",
        "coordinates": [
          [
            31.1744522,
            27.1872308
          ],
          [
            31.1745557,
            27.1872556
          ]
        ]
      },
      "properties": {
        "direction": "both"
      }
    },
    {
      "type": "Feature",
      "geometry": {
        "type": "LineString",
        "coordinates": [
          [
            31.1741763,
            27.1881055
          ],
          [
            31.1742947,
            27.1881439
          ]
        ]
      },
      "properties": {
        "direction": "forward"
      }
    },
    {
      "type": "Feature",
      "geometry": {
        "type": "LineString",
        "coordinates": [
          [
            31.1741025,
            27.1883452
          ],
          [
            31.1742109,
            27.1883979
          ]
        ]
      },
      "properties": {
        "direction": "reverse"
      }
    },
    {
      "type": "Feature",
      "geometry": {
        "type": "LineString",
        "coordinates": [
          [
            31.1739717,
            27.188772
          ],
          [
            31.1740818,
            27.1888089
          ]
        ]
      },
      "properties": {
        "direction": "reverse"
      }
    },
    {
      "type": "Feature",
      "geometry": {
        "type": "LineString",
        "coordinates": [
          [
            31.1739183,
            27.1889156
          ],
          [
            31.1740363,
            27.1889553
          ]
        ]
      },
      "properties": {
        "direction": "forward"
      }
    },
    {
      "type": "Feature",
      "geometry": {
        "type": "LineString",
        "coordinates": [
          [
            31.1740945,
            27.1893911
          ],
          [
            31.1741751,
            27.1891381
          ],
          [
            31.1742487,
            27.1888868
          ],
          [
            31.1743934,
            27.1883894
          ]
        ]
      },
      "properties": {
        "direction": "both"
      }
    },
    {
      "type": "Feature",
      "geometry": {
        "type": "LineString",
        "coordinates": [
          [
            31.1740953,
            27.1893921
          ],
          [
            31.1738711,
            27.1894231
          ]
        ]
      },
      "properties": {
        "direction": "both"
      }
    },
    {
      "type": "Feature",
      "geometry": {
        "type": "LineString",
        "coordinates": [
          [
            31.1736868,
            27.1895785
          ],
          [
            31.1728983,
            27.1893583
          ],
          [
            31.1724207,
            27.1892284
          ],
          [
            31.1718799,
            27.1890795
          ],
          [
            31.1717944,
            27.1890575
          ],
          [
            31.1709199,
            27.1888116
          ],
          [
            31.1704297,
            27.1886943
          ],
          [
            31.1699283,
            27.1885728
          ],
          [
            31.1696412,
            27.1885004
          ],
          [
            31.1693514,
            27.1884346
          ],
          [
            31.1691119,
            27.1883764
          ],
          [
            31.1688676,
            27.1883155
          ],
          [
            31.1685026,
            27.1882424
          ],
          [
            31.1683097,
            27.1882227
          ],
          [
            31.1681201,
            27.1882282
          ],
          [
            31.1680203,
            27.1882302
          ],
          [
            31.167813,
            27.1882421
          ],
          [
            31.1676266,
            27.1882608
          ],
          [
            31.1674297,
            27.1882875
          ],
          [
            31.16733,
            27.1883032
          ],
          [
            31.1672439,
            27.1883205
          ],
          [
            31.1668647,
            27.1884086
          ],
          [
            31.1666702,
            27.1884438
          ],
          [
            31.1664975,
            27.1884596
          ],
          [
            31.1662741,
            27.1884625
          ],
          [
            31.164592,
            27.1881246
          ]
        ]
      },
      "properties": {
        "direction": "reverse"
      }
    },
    {
      "type": "Feature",
      "geometry": {
        "type": "LineString",
        "coordinates": [
          [
            31.1645959,
            27.1881256
          ],
          [
            31.1642762,
            27.1879449
          ],
          [
            31.1641128,
            27.1878461
          ],
          [
            31.1640268,
            27.1877987
          ],
          [
            31.1640361,
            27.1877751
          ]
        ]
      },
      "properties": {
        "direction": "reverse"
      }
    },
    {
      "type": "Feature",
      "geometry": {
        "type": "LineString",
        "coordinates": [
          [
            31.1640408,
            27.1877765
          ],
          [
            31.1645877,
            27.18791
          ],
          [
            31.1649731,
            27.1879994
          ],
          [
            31.1653505,
            27.1880929
          ],
          [
            31.1659239,
            27.188209
          ],
          [
            31.1662702,
            27.1882784
          ],
          [
            31.1663758,
            27.1882887
          ],
          [
            31.1664852,
            27.18829
          ],
          [
            31.1665808,
            27.1882828
          ],
          [
            31.1666701,
            27.1882674
          ],
          [
            31.1667554,
            27.1882486
          ],
          [
            31.1668005,
            27.1882327
          ],
          [
            31.1668681,
            27.1882051
          ],
          [
            31.1669365,
            27.1881808
          ],
          [
            31.1672315,
            27.1880587
          ],
          [
            31.1673771,
            27.1879962
          ],
          [
            31.167456,
            27.1879686
          ],
          [
            31.1675389,
            27.1879528
          ],
          [
            31.16763,
            27.1879454
          ],
          [
            31.1677279,
            27.1879485
          ],
          [
            31.1679663,
            27.1879924
          ],
          [
            31.1681987,
            27.1880435
          ],
          [
            31.1687185,
            27.1881569
          ],
          [
            31.1692537,
            27.1882812
          ],
          [
            31.1697953,
            27.1884144
          ],
          [
            31.1703266,
            27.1885479
          ],
          [
            31.1705948,
            27.1886143
          ],
          [
            31.1708616,
            27.1886815
          ],
          [
            31.1715688,
            27.1888791
          ],
          [
            31.1722864,
            27.1890718
          ],
          [
            31.1737249,
            27.1894539
          ]
        ]
      },
      "properties": {
        "direction": "forward"
      }
    },
    {
      "type": "Feature",
      "geometry": {
        "type": "LineString",
        "coordinates": [
          [
            31.1719476,
            27.1890988
          ],
          [
            31.1719477,
            27.188981
          ]
        ]
      },
      "properties": {
        "direction": "forward"
      }
    },
    {
      "type": "Feature",
      "geometry": {
        "type": "LineString",
        "coordinates": [
          [
            31.1706484,
            27.1887479
          ],
          [
            31.1706422,
            27.1887439
          ],
          [
            31.1706502,
            27.1887205
          ],
          [
            31.170659,
            27.1886919
          ],
          [
            31.1706781,
            27.1886368
          ]
        ]
      },
      "properties": {
        "direction": "forward"
      }
    },
    {
      "type": "Feature",
      "geometry": {
        "type": "LineString",
        "coordinates": [
          [
            31.170907,
            27.1888102
          ],
          [
            31.1709401,
            27.1887037
          ]
        ]
      },
      "properties": {
        "direction": "reverse"
      }
    },
    {
      "type": "Feature",
      "geometry": {
        "type": "LineString",
        "coordinates": [
          [
            31.1673918,
            27.1882951
          ],
          [
            31.1673168,
            27.1882345
          ],
          [
            31.1672851,
            27.1881844
          ],
          [
            31.1672771,
            27.1881403
          ],
          [
            31.1672881,
            27.188097
          ],
          [
            31.1672951,
            27.1880638
          ],
          [
            31.167308,
            27.1880286
          ]
        ]
      },
      "properties": {
        "direction": "forward"
      }
    },
    {
      "type": "Feature",
      "geometry": {
        "type": "LineString",
        "coordinates": [
          [
            31.1677374,
            27.188251
          ],
          [
            31.167752,
            27.1881815
          ],
          [
            31.1677524,
            27.1881056
          ],
          [
            31.1677391,
            27.1880271
          ],
          [
            31.1677072,
            27.1879501
          ]
        ]
      },
      "properties": {
        "direction": "reverse"
      }
    },
    {
      "type": "Feature",
      "geometry": {
        "type": "LineString",
        "coordinates": [
          [
            31.1673092,
            27.1880261
          ],
          [
            31.1673574,
            27.1879679
          ],
          [
            31.167391,
            27.1879209
          ],
          [
            31.1674249,
            27.1878782
          ],
          [
            31.1674538,
            27.1878281
          ],
          [
            31.1675062,
            27.1876739
          ],
          [
            31.1676146,
            27.1873102
          ],
          [
            31.1677195,
            27.1869539
          ],
          [
            31.1677802,
            27.1867543
          ],
          [
            31.1678018,
            27.1866027
          ],
          [
            31.1678952,
            27.186475
          ],
          [
            31.1679378,
            27.1864135
          ],
          [
            31.1679663,
            27.186355
          ],
          [
            31.1680075,
            27.1862367
          ],
          [
            31.1680414,
            27.1861253
          ],
          [
            31.168112,
            27.1858848
          ],
          [
            31.1682389,
            27.1854394
          ],
          [
            31.1682974,
            27.1851877
          ],
          [
            31.1683667,
            27.1849192
          ],
          [
            31.1684065,
            27.1847615
          ],
          [
            31.1684515,
            27.1846133
          ],
          [
            31.1685276,
            27.1844287
          ]
        ]
      },
      "properties": {
        "direction": "reverse"
      }
    },
    {
      "type": "Feature",
      "geometry": {
        "type": "LineString",
        "coordinates": [
          [
            31.1677082,
            27.1879498
          ],
          [
            31.1676828,
            27.1878973
          ],
          [
            31.1676607,
            27.1878264
          ],
          [
            31.1676567,
            27.1877427
          ],
          [
            31.1676751,
            27.1876435
          ],
          [
            31.1677299,
            27.1874616
          ],
          [
            31.1677836,
            27.1872713
          ],
          [
            31.1678583,
            27.18703
          ],
          [
            31.1679522,
            27.1867815
          ],
          [
            31.1680502,
            27.1865197
          ],
          [
            31.1680999,
            27.1863254
          ],
          [
            31.1681541,
            27.1861241
          ],
          [
            31.1681692,
            27.186069
          ],
          [
            31.1681989,
            27.1859533
          ],
          [
            31.1682613,
            27.1857341
          ],
          [
            31.1683268,
            27.1855109
          ],
          [
            31.1683916,
            27.1852884
          ],
          [
            31.1684146,
            27.1852083
          ],
          [
            31.1684353,
            27.1851303
          ],
          [
            31.1684749,
            27.1849719
          ],
          [
            31.1685525,
            27.1846645
          ],
          [
            31.1685578,
            27.1845862
          ],
          [
            31.1685482,
            27.1845284
          ],
          [
            31.1685283,
            27.1844304
          ]
        ]
      },
      "properties": {
        "direction": "forward"
      }
    },
    {
      "type": "Feature",
      "geometry": {
        "type": "LineString",
        "coordinates": [
          [
            31.1684329,
            27.1851436
          ],
          [
            31.1683163,
            27.1851158
          ]
        ]
      },
      "properties": {
        "direction": "forward"
      }
    },
    {
      "type": "Feature",
      "geometry": {
        "type": "LineString",
        "coordinates": [
          [
            31.1680494,
            27.1865218
          ],
          [
            31.1679255,
            27.1864343
          ]
        ]
      },
      "properties": {
        "direction": "forward"
      }
    },
    {
      "type": "Feature",
      "geometry": {
        "type": "LineString",
        "coordinates": [
          [
            31.1679567,
            27.1867754
          ],
          [
            31.1677791,
            27.1867646
          ]
        ]
      },
      "properties": {
        "direction": "reverse"
      }
    },
    {
      "type": "Feature",
      "geometry": {
        "type": "LineString",
        "coordinates": [
          [
            31.1694046,
            27.1857191
          ],
          [
            31.1690542,
            27.1868486
          ]
        ]
      },
      "properties": {
        "direction": "both"
      }
    },
    {
      "type": "Feature",
      "geometry": {
        "type": "LineString",
        "coordinates": [
          [
            31.1683384,
            27.1854764
          ],
          [
            31.1694071,
            27.1857214
          ]
        ]
      },
      "properties": {
        "direction": "both"
      }
    },
    {
      "type": "Feature",
      "geometry": {
        "type": "LineString",
        "coordinates": [
          [
            31.1680527,
            27.1865224
          ],
          [
            31.1680795,
            27.1865488
          ],
          [
            31.1681099,
            27.1865733
          ],
          [
            31.1681497,
            27.1866037
          ],
          [
            31.1682091,
            27.1866381
          ],
          [
            31.1682615,
            27.186659
          ],
          [
            31.1683182,
            27.1866755
          ],
          [
            31.1684316,
            27.1867039
          ],
          [
            31.1686813,
            27.1867644
          ],
          [
            31.1692614,
            27.1868996
          ],
          [
            31.1696388,
            27.1869839
          ],
          [
            31.1699753,
            27.1870648
          ],
          [
            31.1706838,
            27.1872361
          ],
          [
            31.1714778,
            27.1874362
          ],
          [
            31.1718403,
            27.1875334
          ],
          [
            31.1720202,
            27.1875831
          ],
          [
            31.1721017,
            27.187607
          ],
          [
            31.1721842,
            27.1876294
          ],
          [
            31.172929,
            27.187821
          ],
          [
            31.173302,
            27.1879261
          ],
          [
            31.1734911,
            27.1879795
          ],
          [
            31.1737701,
            27.1880581
          ],
          [
            31.1740428,
            27.1881327
          ]
        ]
      },
      "properties": {
        "direction": "reverse"
      }
    },
    {
      "type": "Feature",
      "geometry": {
        "type": "LineString",
        "coordinates": [
          [
            31.1740427,
            27.1881334
          ],
          [
            31.1741804,
            27.1881084
          ]
        ]
      },
      "properties": {
        "direction": "both"
      }
    },
    {
      "type": "Feature",
      "geometry": {
        "type": "LineString",
        "coordinates": [
          [
            31.1741061,
            27.1883468
          ],
          [
            31.1740825,
            27.18831
          ],
          [
            31.1740596,
            27.1882611
          ]
        ]
      },
      "properties": {
        "direction": "both"
      }
    },
    {
      "type": "Feature",
      "geometry": {
        "type": "LineString",
        "coordinates": [
          [
            31.1740618,
            27.1882661
          ],
          [
            31.1740135,
            27.1882405
          ],
          [
            31.1739214,
            27.1882091
          ],
          [
            31.1737701,
            27.1881597
          ],
          [
            31.1734565,
            27.1880721
          ],
          [
            31.1727023,
            27.1878591
          ],
          [
            31.1716221,
            27.1875931
          ],
          [
            31.1713424,
            27.1875287
          ],
          [
            31.1704955,
            27.1873275
          ],
          [
            31.1697423,
            27.1871369
          ],
          [
            31.1685589,
            27.1868499
          ],
          [
            31.1683393,
            27.1867963
          ],
          [
            31.1682084,
            27.1867648
          ],
          [
            31.1681482,
            27.1867553
          ],
          [
            31.1680976,
            27.1867514
          ],
          [
            31.1680172,
            27.1867602
          ],
          [
            31.1679535,
            27.1867743
          ]
        ]
      },
      "properties": {
        "direction": "forward"
      }
    },
    {
      "type": "Feature",
      "geometry": {
        "type": "LineString",
        "coordinates": [
          [
            31.1727853,
            27.1877822
          ],
          [
            31.1727635,
            27.1878757
          ]
        ]
      },
      "properties": {
        "direction": "reverse"
      }
    },
    {
      "type": "Feature",
      "geometry": {
        "type": "LineString",
        "coordinates": [
          [
            31.1712989,
            27.1873904
          ],
          [
            31.1712546,
            27.1875092
          ]
        ]
      },
      "properties": {
        "direction": "reverse"
      }
    },
    {
      "type": "Feature",
      "geometry": {
        "type": "LineString",
        "coordinates": [
          [
            31.1711297,
            27.187347
          ],
          [
            31.171132,
            27.187361
          ],
          [
            31.1711194,
            27.1874095
          ],
          [
            31.1711117,
            27.1874401
          ],
          [
            31.1710979,
            27.1874706
          ]
        ]
      },
      "properties": {
        "direction": "forward"
      }
    },
    {
      "type": "Feature",
      "geometry": {
        "type": "LineString",
        "coordinates": [
          [
            31.1710968,
            27.1874695
          ],
          [
            31.1711509,
            27.1876248
          ]
        ]
      },
      "properties": {
        "direction": "forward"
      }
    },
    {
      "type": "Feature",
      "geometry": {
        "type": "LineString",
        "coordinates": [
          [
            31.1712572,
            27.1875094
          ],
          [
            31.1711519,
            27.187625
          ]
        ]
      },
      "properties": {
        "direction": "reverse"
      }
    },
    {
      "type": "Feature",
      "geometry": {
        "type": "LineString",
        "coordinates": [
          [
            31.1706742,
            27.1886341
          ],
          [
            31.1708653,
            27.1885128
          ]
        ]
      },
      "properties": {
        "direction": "forward"
      }
    },
    {
      "type": "Feature",
      "geometry": {
        "type": "LineString",
        "coordinates": [
          [
            31.1709346,
            27.188703
          ],
          [
            31.170907,
            27.1886202
          ],
          [
            31.1708664,
            27.1885137
          ]
        ]
      },
      "properties": {
        "direction": "reverse"
      }
    },
    {
      "type": "Feature",
      "geometry": {
        "type": "LineString",
        "coordinates": [
          [
            31.1711533,
            27.1876206
          ],
          [
            31.1710814,
            27.1878392
          ],
          [
            31.171012,
            27.1880638
          ],
          [
            31.1709386,
            27.1882838
          ],
          [
            31.1708597,
            27.188515
          ]
        ]
      },
      "properties": {
        "direction": "forward"
      }
    },
    {
      "type": "Feature",
      "geometry": {
        "type": "LineString",
        "coordinates": [
          [
            31.1736845,
            27.1895746
          ],
          [
            31.1737826,
            27.1896287
          ]
        ]
      },
      "properties": {
        "direction": "forward"
      }
    },
    {
      "type": "Feature",
      "geometry": {
        "type": "LineString",
        "coordinates": [
          [
            31.1730024,
            27.191448
          ],
          [
            31.173247,
            27.1908478
          ]
        ]
      },
      "properties": {
        "direction": "forward"
      }
    },
    {
      "type": "Feature",
      "geometry": {
        "type": "LineString",
        "coordinates": [
          [
            31.1732415,
            27.1908628
          ],
          [
            31.1733457,
            27.1908816
          ]
        ]
      },
      "properties": {
        "direction": "forward"
      }
    },
    {
      "type": "Feature",
      "geometry": {
        "type": "LineString",
        "coordinates": [
          [
            31.1731619,
            27.1910504
          ],
          [
            31.173273,
            27.1910723
          ]
        ]
      },
      "properties": {
        "direction": "forward"
      }
    }
  ]
}